ZHUHAI-1 OHS-02         
1 43441U 18040C   26069.01478807  .00008704  00000+0  35711-3 0  9995
2 43441  97.0498  99.0102 0008640 212.7451 147.3253 15.24423286 99163
SAUDISAT 5B             
1 43833U 18102C   26068.95784094  .00006596  00000+0  24927-3 0  9993
2 43833  97.3281 135.3629 0012057 124.0958 236.1427 15.27248504400643
