[{"OBJECT_NAME":"ZHUHAI-1 OHS-02","OBJECT_ID":"2018-040C","EPOCH":"2026-03-10T00:21:17.689248","MEAN_MOTION":15.24423286,"ECCENTRICITY":0.00086405,"INCLINATION":97.0498,"RA_OF_ASC_NODE":99.0102,"ARG_OF_PERICENTER":212.7451,"MEAN_ANOMALY":147.3253,"EPHEMERIS_TYPE":0,"CLASSIFICATION_TYPE":"U","NORAD_CAT_ID":43441,"ELEMENT_SET_NO":999,"REV_AT_EPOCH":9916,"BSTAR":0.00035710842,"MEAN_MOTION_DOT":8.704e-5,"MEAN_MOTION_DDOT":0},{"OBJECT_NAME":"SAUDISAT 5B","OBJECT_ID":"2018-102C","EPOCH":"2026-03-09T22:59:17.457216","MEAN_MOTION":15.27248504,"ECCENTRICITY":0.00120577,"INCLINATION":97.3281,"RA_OF_ASC_NODE":135.3629,"ARG_OF_PERICENTER":124.0958,"MEAN_ANOMALY":236.1427,"EPHEMERIS_TYPE":0,"CLASSIFICATION_TYPE":"U","NORAD_CAT_ID":43833,"ELEMENT_SET_NO":999,"REV_AT_EPOCH":40064,"BSTAR":0.00024926623,"MEAN_MOTION_DOT":6.596e-5,"MEAN_MOTION_DDOT":0}]
